0 DELTA 1 DEB
1 19590U 73086HG  16017.44256184 -.00000022  00000-0  17999-3 0  9990
2 19590 102.1118 350.3963 0046082  65.7228  60.3160 12.31786581387061
0 TITAN 3C TRANSTAGE DEB
1 19592U 65108AA  16016.25165346  .00000521  00000-0  24151-2 0  9995
2 19592  26.5765 116.9851 6747446 262.3633  54.0052  2.81496535237970
0 OPS 4682 DEB
1 19593U 65027AW  16017.65653572 -.00000133  00000-0 -50230-3 0  9993
2 19593  90.3066 270.8258 0029410   8.3561  20.1317 12.94692300309916
0 DELTA 1 DEB
1 19594U 78026HN  16016.38478584  .00002409  00000-0  12700-2 0  9999
2 19594  98.7603   1.6911 0124153 277.1644  81.5426 14.10993728165718
0 TITAN 3C TRANSTAGE DEB
1 19595U 65108AB  16016.32056160  .00002184  00000-0  17488-2 0  9991
2 19595  27.0326 332.3906 6063270   1.3052 359.6723  3.86438441294586
0 RADUGA 22
1 19596U 88095A   16015.86576769 -.00000334  00000-0  00000+0 0  9997
2 19596  14.8762   3.8116 0004042 124.5454  73.1765  1.00263888 83549
0 DELTA 1 DEB
1 19599U 84088H   16017.69447602  .00000127  00000-0  52859-4 0  9997
2 19599  28.7109 213.3268 1925157 355.5353  51.6525 10.92858604821026
0 COSMOS 1977
1 19608U 88096A   16017.87283388  .00000113  00000-0  00000+0 0  9991
2 19608  69.0495 289.8418 5775485 148.9847  42.1442  2.00841754199525
0 SL-6 R/B(2)
1 19611U 88096D   16016.87706561 -.00000229 +00000-0 +00000-0 0  9997
2 19611 068.3990 224.1079 5783036 131.3546 295.2518 02.04275273203161
0 TDF 1
1 19621U 88098A   16016.11180729 -.00000040  00000-0  00000+0 0  9999
2 19621  14.6803  23.9588 0011274 183.6361 333.4352  0.99196039 96027
0 ARIANE 2 R/B
1 19622U 88098B   16017.69523872  .00004297  00000-0  94240-3 0  9994
2 19622   3.7247 150.2750 6427892 282.4493  16.8274  3.41964283286559
0 DELTA 1 DEB
1 19638U 77065GB  16015.95362448 +.00005512 +00000-0 +17983-1 0  9998
2 19638 030.9875 252.2056 0673511 025.0785 082.6898 12.41816581099368
0 COSMOS 1823 DEB
1 19640U 87020CE  16015.86457612 +.00000257 +00000-0 +26419-2 0  9997
2 19640 073.5496 340.7445 0169008 283.4524 102.0487 12.16624441130046
0 SL-3 DEB
1 19643U 78121C   16017.90344244  .00000032  00000-0  10064-4 0  9997
2 19643  81.2417 313.9669 0064063 251.9028 172.0029 14.15030385405742
0 SL-14 DEB
1 19646U 78100AM  16016.86763132  .00003632  00000-0  13444-1 0  9993
2 19646  82.1451 154.6164 0176845 185.6824 333.3775 12.87291616932032
0 COSMOS 1980
1 19649U 88102A   16018.22790359  .00000034  00000-0  42585-4 0  9996
2 19649  71.0012  68.7323 0005345 350.5356   9.5664 14.14635712401600
0 SL-16 R/B
1 19650U 88102B   16017.44842999 -.00000119  00000-0 -36188-4 0  9997
2 19650  71.0000  21.6284 0016664 252.3394 107.5909 14.15730165402858
0 SL-16 DEB
1 19656U 88102C   16016.57598641 +.00000049 +00000-0 +86780-4 0  9991
2 19656 070.9816 071.1933 0211798 173.3851 187.0127 13.71097059357586
0 SL-16 DEB
1 19657U 88102D   16017.18065141  .00000035  00000-0  72731-4 0  9990
2 19657  70.9826  59.2150 0210084 139.4217 279.5666 13.71438868358293
0 SL-16 DEB
1 19658U 88102E   16016.95720310 +.00000043 +00000-0 +78542-4 0  9996
2 19658 071.0232 008.9209 0197024 032.9741 358.3912 13.74262201360843
0 SL-16 DEB
1 19659U 88102F   16016.49703973  .00000001  00000-0  39902-4 0  9993
2 19659  71.0380 305.1136 0189642 301.4936 168.5431 13.76561792363351
0 OPS 4682 DEB
1 19664U 65027AX  16018.11683631 -.00000508  00000-0 -16839-2 0  9995
2 19664  90.2848 261.0119 0027509 219.3563 296.1293 13.01044517561696
0 THORAD AGENA D DEB
1 19667U 70025QC  16017.44615852  .00000230  00000-0  87674-3 0  9993
2 19667  99.7087   1.6520 0342162 267.7097 251.5995 12.83349118293517
0 EKRAN 19
1 19683U 88108A   16017.88866490 -.00000106  00000-0  00000+0 0  9993
2 19683  16.1132   8.3876 0027562 124.6425  43.8281  0.96651539 96804
0 SL-12 R/B(2)
1 19686U 88108D   16015.87240139 -.00000213 +00000-0 +00000-0 0  9999
2 19686 014.6837 002.9232 0013776 109.4160 078.2388 01.01513866085813
0 SKYNET 4B
1 19687U 88109A   16015.45508972 -.00000151  00000-0  00000+0 0  9997
2 19687  15.3136  10.9890 0007991 221.6018 138.3638  0.99673857 80290
0 ASTRA 1A
1 19688U 88109B   16017.68118527 -.00000242  00000-0  00000+0 0  9999
2 19688  12.2689  36.6376 0011050  19.0709 100.1167  0.98339135 78705
0 ARIANE 44LP R/B
1 19689U 88109C   16017.22184316 -.00000036  00000-0  30610-3 0  9994
2 19689   7.2668 324.5089 7193146 285.5102  11.1895  2.28743391190799
0 STTW-3
1 19710U 88111A   16016.93313609 -.00000377 +00000-0 +00000-0 0  9993
2 19710 014.7727 019.8853 0003818 105.0953 078.3363 01.00281886092695
0 COSMOS 1987 (GLONASS)
1 19749U 89001A   16017.52638429  .00000112  00000-0  00000+0 0  9995
2 19749  64.1400 202.8031 0004175 241.0448  64.9253  2.13103615210287
0 COSMOS 1988 (GLONASS)
1 19750U 89001B   16017.13475345  .00000111  00000-0  00000+0 0  9999
2 19750  64.1606 203.0650 0012511 209.9391 101.5851  2.13102260210298
0 COSMOS 1989 (ETALON 1)
1 19751U 89001C   16018.02267959  .00000112  00000-0  00000+0 0  9990
2 19751  64.1506 202.7236 0020137 207.5344 233.4853  2.13156248210370
0 SL-12 DEB
1 19753U 89001E   16016.17533025  .00000107  00000-0  00000+0 0  9990
2 19753  64.1504 202.7654 0020437 203.0008 112.4731  2.13160572210775
0 SL-12 R/B(2)
1 19754U 89001F   16016.71101322 +.00000110 +00000-0 +00000-0 0  9997
2 19754 064.1445 201.7769 0010962 242.0461 320.9790 02.13421898210507
0 SL-12 R/B(AUX MOTOR)
1 19755U 89001G   16016.20327334 -.00000022  00000-0 -87367-3 0  9993
2 19755  65.2200 281.9018 5526600 248.4933 336.0250  4.25440633419194
0 GORIZONT 17
1 19765U 89004A   16016.67731992 -.00000071  00000-0  00000+0 0  9995
2 19765  15.1934   6.1165 0017530  74.8384 117.1735  0.99066975 97879
0 COSMOS 1992
1 19769U 89005A   16017.54129223  .00000066  00000-0  32352-4 0  9998
2 19769  74.0467  15.7099 0021081  78.1068 282.2446 14.34730258411455
0 SL-8 R/B
1 19770U 89005B   16017.34422280  .00000078  00000-0  33960-4 0  9996
2 19770  74.0462 281.5964 0004112 140.1200   0.2591 14.38648052412230
0 INTELSAT 515
1 19772U 89006A   16017.61365616  .00000035  00000-0  00000+0 0  9995
2 19772  14.2214  27.4116 0017632  16.1312 175.1719  0.99102937 86933
0 ARIANE 2 R/B
1 19773U 89006B   16016.57780396  .00000009  00000-0  15525-3 0  9999
2 19773   8.0768  97.9568 7164896  90.4273 344.0696  2.28261250223599
0 SL-12 R/B(2)
1 19776U 89004F   16016.18513633 -.00000199  00000-0  00000+0 0  9994
2 19776  15.5918   6.9632 0019533  31.7577 134.4291  0.97995037 81189
0 SL-12 R/B(2)
1 19777U 88095F   16016.01021806 -.00000049  00000-0  00000+0 0  9996
2 19777  15.6441   6.1537 0016674 172.1108 358.3183  0.97938270 85010
0 COSMOS 1994
1 19785U 89009A   16017.18025882  .00000001  00000-0 -51820-4 0  9997
2 19785  82.6197 254.0074 0013373 332.7702 141.6851 12.64268492242882
0 COSMOS 1995
1 19786U 89009B   16017.26783922  .00000009  00000-0 -88713-5 0  9993
2 19786  82.6239 280.8490 0004393  90.7705  26.4739 12.62126731240650
0 COSMOS 1996
1 19787U 89009C   16017.19425843  .00000008  00000-0 -13821-4 0  9997
2 19787  82.6132 264.4681 0007625  44.0497  72.7279 12.62842691241467
0 COSMOS 1997
1 19788U 89009D   16017.78284734  .00000006  00000-0 -26402-4 0  9992
2 19788  82.6188 260.1094 0010296 355.2501  72.7918 12.63609942242317
0 COSMOS 1998
1 19789U 89009E   16016.90014224 +.00000010 +00000-0 -49374-5 0  9990
2 19789 082.6092 239.6561 0016183 309.9395 050.0275 12.64841851243066
0 COSMOS 1999
1 19790U 89009F   16016.95227206 +.00000012 +00000-0 +77564-5 0  9996
2 19790 082.6160 236.2337 0019265 265.3624 221.6143 12.65653404243990
0 SL-14 R/B
1 19791U 89009G   16018.00304289  .00000032  00000-0  13032-3 0  9992
2 19791  82.6142 354.4598 0035176 164.5397 255.7903 12.54854190233791
0 SL-6 R/B(2)
1 19799U 89011D   16017.93017183  .00000968  00000-0  12261+0 0  9995
2 19799  67.0785 195.6563 6442521 126.1393 190.8165  2.04162799163936
0 NAVSTAR 13 (USA 35)
1 19802U 89013A   16016.51812227  .00000083  00000-0  00000+0 0  9993
2 19802  54.3081 223.3273 0039445 151.3881 172.5241  1.85321962188621
0 MOLNIYA 1-75
1 19807U 89014A   16016.29159868 +.00000124 +00000-0 +85197-2 0  9998
2 19807 063.6268 192.4501 6826789 281.5049 014.4164 02.00569159197087
0 SL-6 R/B(2)
1 19810U 89014D   16017.69547213 -.00000092  00000-0 -15379-2 0  9993
2 19810  63.5094 121.0923 6835295 280.8108 220.1061  2.07397256203863
0 EXOS D (AKEBONO)
1 19822U 89016A   16017.84357984  .00030117  68969-6  64240-3 0  9994
2 19822  75.0413 152.7971 2024791 216.5475 127.9099 11.43600688849512
0 COSMOS 2004
1 19826U 89017A   16018.14071718  .00000081  00000-0  72330-4 0  9994
2 19826  82.9503 204.0316 0030514  15.8402 121.9801 13.72206099347098
0 SL-8 R/B
1 19827U 89017B   16017.87885060 -.00000002  00000-0 -17495-4 0  9993
2 19827  82.9505 182.0044 0030512 292.9980 180.0915 13.74042601348813
0 SL-8 DEB
1 19831U 89005C   16017.18503237  .00000724  00000-0  18610-3 0  9990
2 19831  74.0682 158.2111 0013799  74.8202 339.8131 14.51958475419520
0 DELTA 1 DEB
1 19834U 72058JM  16017.86064655  .00000304  00000-0  71229-4 0  9994
2 19834  98.6061 340.3050 0138397 234.1901 153.7025 14.56848348245143
0 METEOR 2-18
1 19851U 89018A   16017.88526269  .00000060  00000-0  39677-4 0  9993
2 19851  82.5229 328.5680 0013505  34.0879 346.2934 13.85666579359274
0 SL-14 R/B
1 19852U 89018B   16017.50217803  .00000029  00000-0  12615-4 0  9992
2 19852  82.5224 344.4289 0018725  74.8345  64.4522 13.84031061358071
0 COSMOS 1275 DEB
1 19853U 81053MN  16013.31740135 +.00000545 +00000-0 +63390-3 0  9996
2 19853 082.9854 142.3779 0127225 258.2983 130.1937 13.63827764174837
0 SL-12 R/B(AUX MOTOR)
1 19856U 89001H   16017.21809395 -.00000026  00000-0  73682-5 0  9999
2 19856  65.0126 289.3140 5679522 210.0147 322.2282  4.25193232418712
0 ARIANE 1 DEB
1 19857U 85056P   16013.22020345 -.00000122 +00000-0 -18084-2 0  9993
2 19857 007.2513 008.4625 7097883 193.6449 097.2221 02.29035461010414
0 JCSAT 1
1 19874U 89020A   16014.91086213 -.00000323  00000-0  00000+0 0  9998
2 19874  14.2933  26.9329 0001349 186.5197 351.0639  0.99535695 90960
